HORYU-4                 
1 41340U 16012D   20234.51355097  .00000325  00000-0  17892-4 0  9999
2 41340  31.0047 277.4527 0013919  74.3500 285.8671 15.01537838247668
E-ST@R-II               
1 41459U 16025D   20234.81934455  .00000202  00000-0  14658-4 0  9999
2 41459  98.1102 348.2381 0164188 352.3058   7.5638 15.06583137237289
AAUSAT 4                
1 41460U 16025E   20234.78871504  .00001161  00000-0  60454-4 0  9992
2 41460  98.1081 350.7703 0152557 340.2742  19.2623 15.08955859237499
BEESAT-4                
1 41619U 16040W   20234.88387682  .00000913  00000-0  40340-4 0  9991
2 41619  97.3144 292.8563 0009669 315.3765  44.6694 15.24157880219361
CANX-7                  
1 41788U 16059F   20234.79957443  .00005580  00000-0  75312-3 0  9997
2 41788  98.2579 324.3382 0031052 100.1476 260.3219 14.79182653209476
RAVAN                   
1 41849U 16067B   20234.84459555  .00000288  00000-0  29156-4 0  9997
2 41849  97.9373 345.8301 0008308  34.2283 325.9473 14.98601043206413
CELTEE 1                
1 41850U 16067C   20234.83347208  .00000098  00000-0  13733-4 0  9992
2 41850  97.9315 343.3516 0009298  37.7902 322.3970 14.97207758206289
OPTICUBE 04             
1 41851U 16067D   20234.84215944  .00000324  00000-0  33482-4 0  9990
2 41851  97.9307 342.9433 0009564  41.3148 318.8795 14.96940980206266
AEROCUBE 8D             
1 41852U 16067E   20234.85862101  .00000607  00000-0  58104-4 0  9997
2 41852  97.9321 342.8001 0010616  41.6286 318.5741 14.96944279206240
AEROCUBE 8C             
1 41853U 16067F   20234.89171414 -.00000080  00000-0 -16766-5 0  9998
2 41853  97.9308 342.7323 0010634  39.9030 320.2971 14.96903737206248
PROMETHEUS 2-1          
1 41854U 16067G   20234.84697434  .00000709  00000-0  66437-4 0  9994
2 41854  97.9321 343.0572 0010954  41.4648 318.7402 14.97242011206256
PROMETHEUS 2-3          
1 41855U 16067H   20234.84699544  .00000706  00000-0  66235-4 0  9992
2 41855  97.9323 343.0933 0011134  41.7348 318.4720 14.97250982206257
INS-1B                  
1 41954U 17008G   20234.90351986  .00000913  00000-0  39471-4 0  9992
2 41954  97.3495 298.1198 0010626  74.2322 286.0087 15.24917487195346
BGUSAT                  
1 41999U 17008BD  20234.71436429  .00001615  00000-0  62282-4 0  9992
2 41999  97.3617 302.4517 0009602  82.5080 277.7250 15.27732913194913
DIDO-2                  
1 42000U 17008BE  20234.81469559  .00000628  00000-0  28341-4 0  9998
2 42000  97.3503 298.5138 0010142  90.4693 269.7707 15.24572220194721
PEASSS                  
1 42015U 17008BV  20234.74273205  .00000863  00000-0  36592-4 0  9995
2 42015  97.3530 300.1780 0008053  93.0892 267.1268 15.25737778195309
AL-FARABI 1             
1 42016U 17008BW  20234.72719914  .00001104  00000-0  44896-4 0  9991
2 42016  97.3560 301.3172 0007887  92.6726 267.5416 15.26614545195481
NAYIF-1 (EO-88)         
1 42017U 17008BX  20234.83524108  .00001056  00000-0  43001-4 0  9996
2 42017  97.3555 301.4340 0007946  91.7084 268.5065 15.26656402195521
UCLSAT                  
1 42765U 17036A   20234.89964484  .00000833  00000-0  37594-4 0  9990
2 42765  97.2955 287.3685 0012159 148.2667 211.9305 15.23649247176541
LITUANICASAT-2          
1 42768U 17036D   20234.72019463  .00001462  00000-0  62548-4 0  9999
2 42768  97.3015 287.2725 0015746 140.8787 219.3593 15.24282229175782
AALTO-1                 
1 42775U 17036L   20234.87417965  .00000539  00000-0  26574-4 0  9995
2 42775  97.2930 284.9739 0014830 144.0076 216.2162 15.21924379175621
URSA MAIOR              
1 42776U 17036M   20234.85547544  .00000593  00000-0  28806-4 0  9991
2 42776  97.2942 285.2689 0014634 143.6733 216.5499 15.22114533175631
COMPASS 2               
1 42777U 17036N   20234.88100323  .00001141  00000-0  49751-4 0  9997
2 42777  97.3002 287.8225 0013333 140.6460 219.5749 15.24094377175763
DIAMOND RED             
1 42783U 17036U   20234.85850430  .00000686  00000-0  32095-4 0  9998
2 42783  97.2956 286.5282 0012802 150.9769 209.2182 15.22940884175704
PEGASUS                 
1 42784U 17036V   20234.87268664  .00000786  00000-0  35942-4 0  9998
2 42784  97.2960 287.0053 0012691 149.7732 210.4240 15.23333493175739
DIAMOND GREEN           
1 42785U 17036W   20234.72587697  .00000646  00000-0  30399-4 0  9999
2 42785  97.2958 286.4369 0012680 151.9821 208.2102 15.22939238175754
DIAMOND BLUE            
1 42786U 17036X   20234.39656561  .00000702  00000-0  32777-4 0  9995
2 42786  97.2958 286.1118 0012484 153.1441 207.0444 15.22940301175702
NUDTSAT                 
1 42787U 17036Y   20234.93790345  .00001463  00000-0  61908-4 0  9998
2 42787  97.3007 288.6188 0011026 142.8153 217.3845 15.24705007175678
SUCHAI                  
1 42788U 17036Z   20234.80720080  .00000957  00000-0  42411-4 0  9999
2 42788  97.2969 287.5916 0012277 147.9631 212.2355 15.23905752175834
SKCUBE                  
1 42789U 17036AA  20234.79458172  .00000875  00000-0  39210-4 0  9990
2 42789  97.2963 287.4115 0012143 148.2891 211.9081 15.23738073175745
VZLUSAT-1               
1 42790U 17036AB  20234.73065104  .00001193  00000-0  51006-4 0  9996
2 42790  97.2989 288.4109 0011727 145.8114 214.3882 15.24685347175794
ROBUSTA-1B              
1 42792U 17036AD  20234.87150022  .00000921  00000-0  40915-4 0  9992
2 42792  97.2966 287.7583 0011734 148.0923 212.1027 15.23933948175788
CICERO 6                
1 42793U 17036AE  20234.88740271  .00000615  00000-0  28843-4 0  9991
2 42793  97.2940 287.0945 0010987 150.2009 209.9856 15.23237825175825
D-SAT                   
1 42794U 17036AF  20234.79543963  .00000004  00000-0  55834-5 0  9994
2 42794  97.4898 264.2046 0127083 146.3097 214.6283 14.91305756172432
CORVUS BC2              
1 42846U 17042X   20234.69072198  .00000244  00000-0  29172-4 0  9996
2 42846  97.5137 115.2776 0011049  64.1985 296.0373 14.92127566169138
CORVUS BC1              
1 42847U 17042Y   20234.68198397  .00000277  00000-0  32347-4 0  9990
2 42847  97.5139 115.4507 0010692  63.6337 296.5979 14.92229140169131
MIRATA                  
1 43015U 17073C   20234.79490612  .00000353  00000-0  32892-4 0  9999
2 43015  97.7143 144.5247 0252363 195.1133 164.2443 14.79750029148884
MAKERSAT 0              
1 43016U 17073D   20234.70838743  .00000265  00000-0  26099-4 0  9996
2 43016  97.7179 144.6086 0255263 196.6202 162.6531 14.79288576148851
DELLINGR (RBLE)         
1 43021U 98067NJ  20234.67694996  .00010189  00000-0  79608-4 0  9990
2 43021  51.6348 306.1220 0001800 342.5238  17.5698 15.72343755157123
AEROCUBE 7B (OCSD B)    
1 43042U 17071F   20234.87590727  .00002483  00000-0  62645-4 0  9999
2 43042  51.6376 105.4421 0003746 288.2108  71.8470 15.44008993152489
AEROCUBE 7C (OCSD C)    
1 43043U 17071G   20234.94510548  .00002389  00000-0  60682-4 0  9995
2 43043  51.6376 105.1693 0003987 293.3485  66.7082 15.43982894152460
CHEFSAT                 
1 43044U 17071H   20234.85057021  .00005355  00000-0  10446-3 0  9996
2 43044  51.6372  88.3413 0003562 300.4526  59.6111 15.49228653152684
ASGARDIA 1              
1 43049U 17071N   20234.93727384  .00002301  00000-0  58721-4 0  9993
2 43049  51.6388 104.4485 0001815 317.3563  42.7282 15.44001676152470
ISARA                   
1 43050U 17071P   20234.87793256  .00004862  00000-0  99383-4 0  9992
2 43050  51.6354  91.3847 0001655 319.8978  40.1888 15.48085260152648
PROPCUBE 2 (FAUNA)      
1 43052U 17071R   20234.90359988  .00002624  00000-0  64655-4 0  9996
2 43052  51.6379 102.7401 0001716 314.2471  45.8375 15.44486573152488
CORVUS BC3              
1 43118U 18004H   20234.78284922  .00000535  00000-0  25404-4 0  9995
2 43118  97.4397 304.5111 0010414 174.0920 186.0442 15.23448505144940
MICROMAS-2A             
1 43131U 18004W   20234.78821815  .00001264  00000-0  52798-4 0  9994
2 43131  97.4450 306.4862 0009367 170.9837 189.1571 15.25472189145053
SPACEBEE-4              
1 43139U 18004AE  20234.76516933  .00001991  00000-0  78236-4 0  9994
2 43139  97.4489 307.8079 0008759 170.4358 189.7049 15.26849204145126
SPACEBEE-3              
1 43140U 18004AF  20234.73531865  .00002419  00000-0  91780-4 0  9999
2 43140  97.4506 308.5714 0008578 168.2102 191.9340 15.27815183145166
SPACEBEE-2              
1 43141U 18004AG  20234.76688437  .00002617  00000-0  98093-4 0  9995
2 43141  97.4519 308.9047 0008586 167.4100 192.7356 15.28143768145184
SPACEBEE-1              
1 43142U 18004AH  20234.84982753  .00002839  00000-0  10493-3 0  9996
2 43142  97.4524 309.2885 0008568 166.8091 193.3374 15.28527839145202
CICERO 7                
1 43143U 18004AJ  20234.91924662  .00001170  00000-0  49050-4 0  9999
2 43143  97.4428 306.7835 0007365 177.3159 182.8120 15.25495237145091
GOMX-4B                 
1 43196U 18015E   20234.93228533  .00000372  00000-0  18146-4 0  9990
2 43196  97.4465   2.9996 0017496 231.4061 128.5610 15.24303590141875
GOMX-4A                 
1 43197U 18015F   20234.82368510  .00000549  00000-0  25179-4 0  9999
2 43197  97.4455   3.0024 0017603 232.7538 253.1439 15.24585600141870
UBAKUSAT                
1 43467U 98067NQ  20234.74590583  .00026747  00000-0  15096-3 0  9996
2 43467  51.6348 304.9124 0002725 352.6390   7.4571 15.78950984130419
CUBERRT                 
1 43546U 98067NU  20234.42916221  .00009893  00000-0  66619-4 0  9991
2 43546  51.6338 307.3366 0003420 350.8171   9.2766 15.75898656120487
TEMPEST-D               
1 43547U 98067NV  20234.75735663  .00004755  00000-0  56383-4 0  9996
2 43547  51.6376 341.9960 0004387 308.6094  51.4507 15.63357376119736
RAINCUBE                
1 43548U 98067NW  20234.51633605  .00029990  00000-0  17678-3 0  9995
2 43548  51.6311 314.6124 0005217 350.6879   9.4024 15.77898934120527
HALOSAT                 
1 43549U 98067NX  20234.49587052  .00026087  00000-0  16269-3 0  9996
2 43549  51.6340 316.0903 0004909 356.3441   3.7523 15.76708749120069
